{
  "type": "FeatureCollection",
  "features": [
    {
      "type": "Feature",
      "properties": {
        "norad_id": 55973,
        "name": "TIANMU-1 03",
        "group": "weather",
        "lat": 31.726029759653002,
        "lon": 141.1982016759724,
        "alt_km": 439.7292337371391,
        "timestamp": "2025-12-09T07:41:32.845110+00:00",
        "meta_object_name": "TIANMU-1 03",
        "meta_object_id": "2023-039A",
        "meta_epoch": "2025-12-08T23:45:37.872288",
        "meta_mean_motion": 15.40753393,
        "meta_eccentricity": 0.0004507,
        "meta_inclination": 97.5111,
        "meta_ra_of_asc_node": 145.5376,
        "meta_arg_of_pericenter": 71.7994,
        "meta_mean_anomaly": 288.3742,
        "meta_ephemeris_type": 0,
        "meta_classification_type": "U",
        "meta_norad_cat_id": 55973,
        "meta_element_set_no": 999,
        "meta_rev_at_epoch": 15148,
        "meta_bstar": 0.00046200944,
        "meta_mean_motion_dot": 0.00018837,
        "meta_mean_motion_ddot": 0,
        "tle_line1": "1 55973U 23039A   25342.99002167  .00018837  00000+0  46201-3 0  9998",
        "tle_line2": "2 55973  97.5111 145.5376 0004507  71.7994 288.3742 15.40753393151482"
      },
      "geometry": {
        "type": "Point",
        "coordinates": [
          141.1982016759724,
          31.726029759653002
        ]
      }
    },
    {
      "type": "Feature",
      "properties": {
        "norad_id": 55974,
        "name": "TIANMU-1 04",
        "group": "weather",
        "lat": 37.46171282103886,
        "lon": -29.13301771479363,
        "alt_km": 439.38734441596625,
        "timestamp": "2025-12-09T07:41:32.845121+00:00",
        "meta_object_name": "TIANMU-1 04",
        "meta_object_id": "2023-039B",
        "meta_epoch": "2025-12-08T23:17:12.403680",
        "meta_mean_motion": 15.41086757,
        "meta_eccentricity": 0.00051779,
        "meta_inclination": 97.5044,
        "meta_ra_of_asc_node": 144.7098,
        "meta_arg_of_pericenter": 67.2105,
        "meta_mean_anomaly": 292.9688,
        "meta_ephemeris_type": 0,
        "meta_classification_type": "U",
        "meta_norad_cat_id": 55974,
        "meta_element_set_no": 999,
        "meta_rev_at_epoch": 15148,
        "meta_bstar": 0.00045067636,
        "meta_mean_motion_dot": 0.00018579,
        "meta_mean_motion_ddot": 0,
        "tle_line1": "1 55974U 23039B   25342.97028245  .00018579  00000+0  45068-3 0  9995",
        "tle_line2": "2 55974  97.5044 144.7098 0005177  67.2105 292.9688 15.41086757151482"
      },
      "geometry": {
        "type": "Point",
        "coordinates": [
          -29.13301771479363,
          37.46171282103886
        ]
      }
    },
    {
      "type": "Feature",
      "properties": {
        "norad_id": 55975,
        "name": "TIANMU-1 05",
        "group": "weather",
        "lat": 1.2683503801395495,
        "lon": -34.27108509859545,
        "alt_km": 447.00084352409704,
        "timestamp": "2025-12-09T07:41:32.845131+00:00",
        "meta_object_name": "TIANMU-1 05",
        "meta_object_id": "2023-039C",
        "meta_epoch": "2025-12-08T23:07:35.408928",
        "meta_mean_motion": 15.40710015,
        "meta_eccentricity": 0.00043742,
        "meta_inclination": 97.509,
        "meta_ra_of_asc_node": 145.195,
        "meta_arg_of_pericenter": 88.3464,
        "meta_mean_anomaly": 271.8283,
        "meta_ephemeris_type": 0,
        "meta_classification_type": "U",
        "meta_norad_cat_id": 55975,
        "meta_element_set_no": 999,
        "meta_rev_at_epoch": 15146,
        "meta_bstar": 0.00044988935,
        "meta_mean_motion_dot": 0.00018313,
        "meta_mean_motion_ddot": 0,
        "tle_line1": "1 55975U 23039C   25342.96360427  .00018313  00000+0  44989-3 0  9993",
        "tle_line2": "2 55975  97.5090 145.1950 0004374  88.3464 271.8283 15.40710015151461"
      },
      "geometry": {
        "type": "Point",
        "coordinates": [
          -34.27108509859545,
          1.2683503801395495
        ]
      }
    },
    {
      "type": "Feature",
      "properties": {
        "norad_id": 55976,
        "name": "TIANMU-1 06",
        "group": "weather",
        "lat": 49.985409190232495,
        "lon": -24.93481567472462,
        "alt_km": 436.00601318580175,
        "timestamp": "2025-12-09T07:41:32.845141+00:00",
        "meta_object_name": "TIANMU-1 06",
        "meta_object_id": "2023-039D",
        "meta_epoch": "2025-12-08T23:20:31.326720",
        "meta_mean_motion": 15.41139469,
        "meta_eccentricity": 0.00046903,
        "meta_inclination": 97.5102,
        "meta_ra_of_asc_node": 145.6664,
        "meta_arg_of_pericenter": 83.9248,
        "meta_mean_anomaly": 276.2533,
        "meta_ephemeris_type": 0,
        "meta_classification_type": "U",
        "meta_norad_cat_id": 55976,
        "meta_element_set_no": 999,
        "meta_rev_at_epoch": 15148,
        "meta_bstar": 0.00045312543,
        "meta_mean_motion_dot": 0.00018711,
        "meta_mean_motion_ddot": 0,
        "tle_line1": "1 55976U 23039D   25342.97258480  .00018711  00000+0  45313-3 0  9994",
        "tle_line2": "2 55976  97.5102 145.6664 0004690  83.9248 276.2533 15.41139469151483"
      },
      "geometry": {
        "type": "Point",
        "coordinates": [
          -24.93481567472462,
          49.985409190232495
        ]
      }
    },
    {
      "type": "Feature",
      "properties": {
        "norad_id": 56232,
        "name": "FENGYUN 3G",
        "group": "weather",
        "lat": 22.817045485231485,
        "lon": -94.21281767411246,
        "alt_km": 405.45564123953045,
        "timestamp": "2025-12-09T07:41:32.845151+00:00",
        "meta_object_name": "FENGYUN 3G",
        "meta_object_id": "2023-055A",
        "meta_epoch": "2025-12-08T22:17:54.639168",
        "meta_mean_motion": 15.53297787,
        "meta_eccentricity": 0.00092539,
        "meta_inclination": 49.9937,
        "meta_ra_of_asc_node": 247.1147,
        "meta_arg_of_pericenter": 130.4589,
        "meta_mean_anomaly": 229.7187,
        "meta_ephemeris_type": 0,
        "meta_classification_type": "U",
        "meta_norad_cat_id": 56232,
        "meta_element_set_no": 999,
        "meta_rev_at_epoch": 15043,
        "meta_bstar": 0.00056984533,
        "meta_mean_motion_dot": 0.00036407,
        "meta_mean_motion_ddot": 0,
        "tle_line1": "1 56232U 23055A   25342.92910462  .00036407  00000+0  56985-3 0  9997",
        "tle_line2": "2 56232  49.9937 247.1147 0009253 130.4589 229.7187 15.53297787150439"
      },
      "geometry": {
        "type": "Point",
        "coordinates": [
          -94.21281767411246,
          22.817045485231485
        ]
      }
    },
    {
      "type": "Feature",
      "properties": {
        "norad_id": 57166,
        "name": "METEOR-M2 3",
        "group": "weather",
        "lat": 8.368664049365272,
        "lon": 35.63807741991868,
        "alt_km": 810.6140560015019,
        "timestamp": "2025-12-09T07:41:32.845162+00:00",
        "meta_object_name": "METEOR-M2 3",
        "meta_object_id": "2023-091A",
        "meta_epoch": "2025-12-08T23:13:16.525632",
        "meta_mean_motion": 14.24025342,
        "meta_eccentricity": 0.00041261,
        "meta_inclination": 98.6383,
        "meta_ra_of_asc_node": 36.5727,
        "meta_arg_of_pericenter": 19.1751,
        "meta_mean_anomaly": 340.9582,
        "meta_ephemeris_type": 0,
        "meta_classification_type": "U",
        "meta_norad_cat_id": 57166,
        "meta_element_set_no": 999,
        "meta_rev_at_epoch": 12744,
        "meta_bstar": 3.1733032e-05,
        "meta_mean_motion_dot": 2.9e-07,
        "meta_mean_motion_ddot": 0,
        "tle_line1": "1 57166U 23091A   25342.96755238  .00000029  00000+0  31733-4 0  9992",
        "tle_line2": "2 57166  98.6383  36.5727 0004126  19.1751 340.9582 14.24025342127447"
      },
      "geometry": {
        "type": "Point",
        "coordinates": [
          35.63807741991868,
          8.368664049365272
        ]
      }
    },
    {
      "type": "Feature",
      "properties": {
        "norad_id": 57399,
        "name": "TIANMU-1 07",
        "group": "weather",
        "lat": -2.5807631167475003,
        "lon": 33.576125087099136,
        "alt_km": 485.4021050030715,
        "timestamp": "2025-12-09T07:41:32.845172+00:00",
        "meta_object_name": "TIANMU-1 07",
        "meta_object_id": "2023-101A",
        "meta_epoch": "2025-12-08T23:50:43.027584",
        "meta_mean_motion": 15.27986358,
        "meta_eccentricity": 0.00056418,
        "meta_inclination": 97.2876,
        "meta_ra_of_asc_node": 32.9259,
        "meta_arg_of_pericenter": 90.9639,
        "meta_mean_anomaly": 269.2247,
        "meta_ephemeris_type": 0,
        "meta_classification_type": "U",
        "meta_norad_cat_id": 57399,
        "meta_element_set_no": 999,
        "meta_rev_at_epoch": 13258,
        "meta_bstar": 0.00032545081,
        "meta_mean_motion_dot": 8.819e-05,
        "meta_mean_motion_ddot": 0,
        "tle_line1": "1 57399U 23101A   25342.99355356  .00008819  00000+0  32545-3 0  9998",
        "tle_line2": "2 57399  97.2876  32.9259 0005641  90.9639 269.2247 15.27986358132581"
      },
      "geometry": {
        "type": "Point",
        "coordinates": [
          33.576125087099136,
          -2.5807631167475003
        ]
      }
    }
  ]
}